CCSDS_OMM_VERS = 2.0
CREATION_DATE  = 
ORIGINATOR     = 

OBJECT_NAME    = SHIJIAN-29A (SJ-29A)
OBJECT_ID      = 2025-315A
CENTER_NAME    = EARTH
REF_FRAME      = TEME
TIME_SYSTEM    = UTC
MEAN_ELEMENT_THEORY = SGP/SGP4

EPOCH          = 2026-01-17T19:05:48.130944
MEAN_MOTION    = 1.00271474
ECCENTRICITY   = .000154
INCLINATION    = 3.0166
RA_OF_ASC_NODE = 99.1089
ARG_OF_PERICENTER = 305.3364
MEAN_ANOMALY   = 72.2431

EPHEMERIS_TYPE = 0
CLASSIFICATION_TYPE = U
NORAD_CAT_ID   = 67302
ELEMENT_SET_NO = 999
REV_AT_EPOCH   = 11
BSTAR          = 0
MEAN_MOTION_DOT = -.53E-6
MEAN_MOTION_DDOT = 0

CCSDS_OMM_VERS = 2.0
CREATION_DATE  = 
ORIGINATOR     = 

OBJECT_NAME    = CZ-7A R/B
OBJECT_ID      = 2025-315B
CENTER_NAME    = EARTH
REF_FRAME      = TEME
TIME_SYSTEM    = UTC
MEAN_ELEMENT_THEORY = SGP/SGP4

EPOCH          = 2026-01-17T11:46:53.099904
MEAN_MOTION    = 2.43946896
ECCENTRICITY   = .71914541
INCLINATION    = 19.5703
RA_OF_ASC_NODE = 93.2312
ARG_OF_PERICENTER = 192.3880
MEAN_ANOMALY   = 129.3121

EPHEMERIS_TYPE = 0
CLASSIFICATION_TYPE = U
NORAD_CAT_ID   = 67303
ELEMENT_SET_NO = 999
REV_AT_EPOCH   = 43
BSTAR          = .32676618E-2
MEAN_MOTION_DOT = .119689E-2
MEAN_MOTION_DDOT = .141811E-5

CCSDS_OMM_VERS = 2.0
CREATION_DATE  = 
ORIGINATOR     = 

OBJECT_NAME    = CSG-3
OBJECT_ID      = 2026-001A
CENTER_NAME    = EARTH
REF_FRAME      = TEME
TIME_SYSTEM    = UTC
MEAN_ELEMENT_THEORY = SGP/SGP4

EPOCH          = 2026-01-17T15:41:32.485344
MEAN_MOTION    = 14.82507824
ECCENTRICITY   = .00016217
INCLINATION    = 97.8445
RA_OF_ASC_NODE = 203.4942
ARG_OF_PERICENTER = 89.2528
MEAN_ANOMALY   = 270.8871

EPHEMERIS_TYPE = 0
CLASSIFICATION_TYPE = U
NORAD_CAT_ID   = 67304
ELEMENT_SET_NO = 999
REV_AT_EPOCH   = 216
BSTAR          = .52879162E-4
MEAN_MOTION_DOT = .373E-5
MEAN_MOTION_DDOT = 0

CCSDS_OMM_VERS = 2.0
CREATION_DATE  = 
ORIGINATOR     = 

OBJECT_NAME    = STARLINK-36490
OBJECT_ID      = 2026-002A
CENTER_NAME    = EARTH
REF_FRAME      = TEME
TIME_SYSTEM    = UTC
MEAN_ELEMENT_THEORY = SGP/SGP4

EPOCH          = 2026-01-17T14:00:03.000384
MEAN_MOTION    = 15.81481327
ECCENTRICITY   = .0001942
INCLINATION    = 42.9962
RA_OF_ASC_NODE = 259.9467
ARG_OF_PERICENTER = 263.6411
MEAN_ANOMALY   = 95.9030

EPHEMERIS_TYPE = 0
CLASSIFICATION_TYPE = U
NORAD_CAT_ID   = 67305
ELEMENT_SET_NO = 999
REV_AT_EPOCH   = 326
BSTAR          = -.70773666E-2
MEAN_MOTION_DOT = -.1281714E-1
MEAN_MOTION_DDOT = 0

CCSDS_OMM_VERS = 2.0
CREATION_DATE  = 
ORIGINATOR     = 

OBJECT_NAME    = STARLINK-36488
OBJECT_ID      = 2026-002B
CENTER_NAME    = EARTH
REF_FRAME      = TEME
TIME_SYSTEM    = UTC
MEAN_ELEMENT_THEORY = SGP/SGP4

EPOCH          = 2026-01-17T14:00:03.000384
MEAN_MOTION    = 15.81488452
ECCENTRICITY   = .00017849
INCLINATION    = 42.9964
RA_OF_ASC_NODE = 259.9415
ARG_OF_PERICENTER = 268.9366
MEAN_ANOMALY   = 92.7009

EPHEMERIS_TYPE = 0
CLASSIFICATION_TYPE = U
NORAD_CAT_ID   = 67306
ELEMENT_SET_NO = 999
REV_AT_EPOCH   = 320
BSTAR          = -.71889023E-2
MEAN_MOTION_DOT = -.1299735E-1
MEAN_MOTION_DDOT = 0

CCSDS_OMM_VERS = 2.0
CREATION_DATE  = 
ORIGINATOR     = 

OBJECT_NAME    = STARLINK-36481
OBJECT_ID      = 2026-002C
CENTER_NAME    = EARTH
REF_FRAME      = TEME
TIME_SYSTEM    = UTC
MEAN_ELEMENT_THEORY = SGP/SGP4

EPOCH          = 2026-01-17T14:00:03.000384
MEAN_MOTION    = 15.81434892
ECCENTRICITY   = .00018065
INCLINATION    = 42.9964
RA_OF_ASC_NODE = 259.9296
ARG_OF_PERICENTER = 265.5063
MEAN_ANOMALY   = 100.9571

EPHEMERIS_TYPE = 0
CLASSIFICATION_TYPE = U
NORAD_CAT_ID   = 67307
ELEMENT_SET_NO = 999
REV_AT_EPOCH   = 320
BSTAR          = -.75189079E-2
MEAN_MOTION_DOT = -.1374781E-1
MEAN_MOTION_DDOT = 0

CCSDS_OMM_VERS = 2.0
CREATION_DATE  = 
ORIGINATOR     = 

OBJECT_NAME    = STARLINK-36449
OBJECT_ID      = 2026-002D
CENTER_NAME    = EARTH
REF_FRAME      = TEME
TIME_SYSTEM    = UTC
MEAN_ELEMENT_THEORY = SGP/SGP4

EPOCH          = 2026-01-17T14:00:03.000384
MEAN_MOTION    = 15.81414109
ECCENTRICITY   = .00018186
INCLINATION    = 42.9963
RA_OF_ASC_NODE = 259.9235
ARG_OF_PERICENTER = 266.2817
MEAN_ANOMALY   = 102.5020

EPHEMERIS_TYPE = 0
CLASSIFICATION_TYPE = U
NORAD_CAT_ID   = 67308
ELEMENT_SET_NO = 999
REV_AT_EPOCH   = 326
BSTAR          = -.76852025E-2
MEAN_MOTION_DOT = -.1400635E-1
MEAN_MOTION_DDOT = 0

CCSDS_OMM_VERS = 2.0
CREATION_DATE  = 
ORIGINATOR     = 

OBJECT_NAME    = STARLINK-36482
OBJECT_ID      = 2026-002E
CENTER_NAME    = EARTH
REF_FRAME      = TEME
TIME_SYSTEM    = UTC
MEAN_ELEMENT_THEORY = SGP/SGP4

EPOCH          = 2026-01-17T14:00:03.000384
MEAN_MOTION    = 15.81196609
ECCENTRICITY   = .00018518
INCLINATION    = 42.9969
RA_OF_ASC_NODE = 259.8943
ARG_OF_PERICENTER = 269.5113
MEAN_ANOMALY   = 111.1869

EPHEMERIS_TYPE = 0
CLASSIFICATION_TYPE = U
NORAD_CAT_ID   = 67309
ELEMENT_SET_NO = 999
REV_AT_EPOCH   = 320
BSTAR          = -.81356172E-2
MEAN_MOTION_DOT = -.145997E-1
MEAN_MOTION_DDOT = 0

CCSDS_OMM_VERS = 2.0
CREATION_DATE  = 
ORIGINATOR     = 

OBJECT_NAME    = STARLINK-36491
OBJECT_ID      = 2026-002F
CENTER_NAME    = EARTH
REF_FRAME      = TEME
TIME_SYSTEM    = UTC
MEAN_ELEMENT_THEORY = SGP/SGP4

EPOCH          = 2026-01-17T14:00:03.000384
MEAN_MOTION    = 15.81433585
ECCENTRICITY   = .00018528
INCLINATION    = 42.9967
RA_OF_ASC_NODE = 259.9350
ARG_OF_PERICENTER = 268.6655
MEAN_ANOMALY   = 95.7514

EPHEMERIS_TYPE = 0
CLASSIFICATION_TYPE = U
NORAD_CAT_ID   = 67310
ELEMENT_SET_NO = 999
REV_AT_EPOCH   = 320
BSTAR          = -.74509801E-2
MEAN_MOTION_DOT = -.1363641E-1
MEAN_MOTION_DDOT = 0

CCSDS_OMM_VERS = 2.0
CREATION_DATE  = 
ORIGINATOR     = 

OBJECT_NAME    = STARLINK-36495
OBJECT_ID      = 2026-002G
CENTER_NAME    = EARTH
REF_FRAME      = TEME
TIME_SYSTEM    = UTC
MEAN_ELEMENT_THEORY = SGP/SGP4

EPOCH          = 2026-01-17T14:00:03.000384
MEAN_MOTION    = 15.81363991
ECCENTRICITY   = .00017731
INCLINATION    = 42.9965
RA_OF_ASC_NODE = 259.9172
ARG_OF_PERICENTER = 271.6652
MEAN_ANOMALY   = 99.6530

EPHEMERIS_TYPE = 0
CLASSIFICATION_TYPE = U
NORAD_CAT_ID   = 67311
ELEMENT_SET_NO = 999
REV_AT_EPOCH   = 336
BSTAR          = -.78597782E-2
MEAN_MOTION_DOT = -.1425861E-1
MEAN_MOTION_DDOT = 0

CCSDS_OMM_VERS = 2.0
CREATION_DATE  = 
ORIGINATOR     = 

OBJECT_NAME    = STARLINK-36485
OBJECT_ID      = 2026-002H
CENTER_NAME    = EARTH
REF_FRAME      = TEME
TIME_SYSTEM    = UTC
MEAN_ELEMENT_THEORY = SGP/SGP4

EPOCH          = 2026-01-17T14:00:03.000384
MEAN_MOTION    = 15.81288815
ECCENTRICITY   = .00018368
INCLINATION    = 42.9966
RA_OF_ASC_NODE = 259.9105
ARG_OF_PERICENTER = 268.9505
MEAN_ANOMALY   = 105.0225

EPHEMERIS_TYPE = 0
CLASSIFICATION_TYPE = U
NORAD_CAT_ID   = 67312
ELEMENT_SET_NO = 999
REV_AT_EPOCH   = 320
BSTAR          = -.79639706E-2
MEAN_MOTION_DOT = -.143815E-1
MEAN_MOTION_DDOT = 0

CCSDS_OMM_VERS = 2.0
CREATION_DATE  = 
ORIGINATOR     = 

OBJECT_NAME    = STARLINK-36445
OBJECT_ID      = 2026-002J
CENTER_NAME    = EARTH
REF_FRAME      = TEME
TIME_SYSTEM    = UTC
MEAN_ELEMENT_THEORY = SGP/SGP4

EPOCH          = 2026-01-17T14:00:03.000384
MEAN_MOTION    = 15.81301160
ECCENTRICITY   = .00017756
INCLINATION    = 42.9963
RA_OF_ASC_NODE = 259.9054
ARG_OF_PERICENTER = 266.1874
MEAN_ANOMALY   = 109.6839

EPHEMERIS_TYPE = 0
CLASSIFICATION_TYPE = U
NORAD_CAT_ID   = 67313
ELEMENT_SET_NO = 999
REV_AT_EPOCH   = 336
BSTAR          = -.80109385E-2
MEAN_MOTION_DOT = -.1446364E-1
MEAN_MOTION_DDOT = 0

