SHIJIAN-29A (SJ-29A)    
1 67302U 25315A   26017.79569596 -.00000053  00000+0  00000+0 0  9993
2 67302   3.0166  99.1089 0001540 305.3364  72.2431  1.00271474   113
CZ-7A R/B               
1 67303U 25315B   26017.49089236  .00119689  14181-5  32677-2 0  9993
2 67303  19.5703  93.2312 7191454 192.3880 129.3121  2.43946896   435
CSG-3                   
1 67304U 26001A   26017.65384821  .00000373  00000+0  52879-4 0  9999
2 67304  97.8445 203.4942 0001621  89.2528 270.8871 14.82507824  2160
STARLINK-36490          
1 67305U 26002A   26017.58336806 -.01281714  00000+0 -70774-2 0  9998
2 67305  42.9962 259.9467 0001942 263.6411  95.9030 15.81481327  3263
STARLINK-36488          
1 67306U 26002B   26017.58336806 -.01299735  00000+0 -71889-2 0  9999
2 67306  42.9964 259.9415 0001784 268.9366  92.7009 15.81488452  3201
STARLINK-36481          
1 67307U 26002C   26017.58336806 -.01374781  00000+0 -75189-2 0  9992
2 67307  42.9964 259.9296 0001806 265.5063 100.9571 15.81434892  3206
STARLINK-36449          
1 67308U 26002D   26017.58336806 -.01400635  00000+0 -76852-2 0  9999
2 67308  42.9963 259.9235 0001818 266.2817 102.5020 15.81414109  3269
STARLINK-36482          
1 67309U 26002E   26017.58336806 -.01459970  00000+0 -81356-2 0  9991
2 67309  42.9969 259.8943 0001851 269.5113 111.1869 15.81196609  3206
STARLINK-36491          
1 67310U 26002F   26017.58336806 -.01363641  00000+0 -74510-2 0  9996
2 67310  42.9967 259.9350 0001852 268.6655  95.7514 15.81433585  3202
STARLINK-36495          
1 67311U 26002G   26017.58336806 -.01425861  00000+0 -78598-2 0  9990
2 67311  42.9965 259.9172 0001773 271.6652  99.6530 15.81363991  3367
STARLINK-36485          
1 67312U 26002H   26017.58336806 -.01438150  00000+0 -79640-2 0  9995
2 67312  42.9966 259.9105 0001836 268.9505 105.0225 15.81288815  3208
STARLINK-36445          
1 67313U 26002J   26017.58336806 -.01446364  00000+0 -80109-2 0  9994
2 67313  42.9963 259.9054 0001775 266.1874 109.6839 15.81301160  3367
